#dP2023 11 10  0  0  0.00000000      96 __u+U IGS20 FIT  IAC
## 2287 432000.00000000   900.00000000 60258 0.0000000000000
+  117   C06C07C08C09C10C11C12C13C14C16C19C20C21C22C23C24C25
+        C26C27C28C29C30C32C33C34C35C36C37C38C39C40C41C42C43
+        C44C45C46E02E03E04E07E08E09E10E11E12E13E15E19E21E24
+        E25E26E27E30E31E33E34E36G01G02G03G04G05G06G07G08G09
+        G10G11G12G13G14G15G16G17G18G19G20G21G22G23G24G25G26
+        G27G28G29G30G31G32J02J03J04R01R02R03R04R05R07R08R09
+        R11R12R13R14R15R16R17R18R19R20R21R22R24R25R26  0  0
++         8  8  8  9  9  8  8  8  8  8  7  6  6  5  8  7  6
++         6  5  7  7  6  7  6  8  6  6  5  9  9  8  8  6  7
++         6  6  7  6  6  6  6  7  6  5  6  6  6  6  5  6  6
++         6  6  5  6  6  6  6  6  6  5  6  6  5  6  5  5  6
++         6  6  5  6  5  6  7  5  6  6  6  5  5  6  6  6  6
++         4  6  5  5  6  7  8  8  8  7  7  7  6  7  6  6  6
++         6  9  7  8  6  7  5  5  6  7  6  6  6  6  5  0  0
%c M  cc GPS ccc cccc cccc cccc cccc ccccc ccccc ccccc ccccc
%c cc cc ccc ccc cccc cccc cccc cccc ccccc ccccc ccccc ccccc
%f  0.0000000  0.000000000  0.00000000000  0.000000000000000
%f  0.0000000  0.000000000  0.00000000000  0.000000000000000
%i    0    0    0    0      0      0      0      0         0
%i    0    0    0    0      0      0      0      0         0
/* INFORMATION & ANALYSIS CENTER (IAC)      ULTRA-RAPID DATA
/* S/V CLOCKS ARE ALIGNED TO GNSS TIME                      
/* G:C1WC2W R:C1PC2P E:C1XC5X C:C2IC6I J:C1CC2S             
/* PCV:IGS20_2280 OL/AL:FES2004  NONE     YN ORB:CoN CLK:CoN
*  2023 11 10 22 15  0.00000000
PC06 -18505.270648  30620.668452 -22491.016733     17.295192
PC07  -6017.417358  38902.667430 -14764.442782   -298.282945
PC08  -2957.293432  20957.282525  36486.423826    247.772895
PC09 -10860.514618  29221.097814 -28238.650838    -72.598303
PC10   1047.236474  41141.668497  -7440.422104    -12.499612
PC11  21153.597696  -5728.443537  17365.466035    249.423298
PC12   9990.217650  11946.991929  23202.078296    863.833350
PC13   3411.227820  24321.534331  34487.749021    380.747239
PC14  16998.292465   3750.889131 -21793.375943    758.768237
PC16 -22398.569159  30069.118381 -19362.146405   -169.118948
PC19 -14111.367892   6995.533883  23051.319206   -972.025745
PC20 -17234.551349 -12341.663663  18163.187266    127.923630
PC21  10135.660821  25928.551567  -1797.821810   -969.281056
PC22  -2704.042758  23414.516951  14915.956736   -230.394150
PC23  10403.506949 -13982.240268  21797.330055   -824.263376
PC24  25642.307615   9363.236021  -5887.428118    583.607534
PC25  24889.292606  -4377.742045  11851.004311    252.777925
PC26  12188.311009  16148.895221 -19253.885289   -204.379479
PC27  -2819.568548 -18547.437996 -20671.787962    226.263115
PC28  12260.902465 -23352.516489  -9115.344745    170.676864
PC29 -21369.036016  14821.944039 -10118.582191    199.649876
PC30 -16966.454964  -3534.929245 -21878.428258     -8.096810
PC32 -10287.129267 -25889.087190   1692.116025   -534.073185
PC33  14128.286898  -6991.111998 -23031.866105   -945.861066
PC34  17778.548588   2128.072114  21392.462808    300.587421
PC35 -11278.797296  23830.771711   9188.400884    505.729885
PC36 -25371.199462   3209.073197 -11133.961263   -140.054595
PC37 -11012.151266 -16516.739344  19609.481329   -882.148718
PC38 -12279.214577  19362.812040  35415.077387    116.888531
PC39 -24259.019819  31048.971322 -15323.278588     -5.612390
PC40 -10646.437250  36281.673472 -18366.941027    -43.495600
PC41   3142.248707 -23010.913060 -15428.281220   -871.356563
PC42  17121.578283  13801.904861 -17131.488309   -502.005016
PC43  21525.170641 -14038.706268  10851.265027     47.717224
PC44   3413.566324  18653.153391  20472.837806    288.878706
PC45  -9747.585768  14083.651336 -22031.145405    -44.868670
PC46 -26051.626977  -8693.487367   4806.179690    -98.757197
PE02  23608.719514   7441.029127  16244.677184     77.371022
PE03  17708.331693  -2739.362645 -23572.096453    -72.620414
PE04 -14680.180652  22372.219325  12656.970053   -254.570041
PE07   3291.351421 -28928.311602   5350.622825    -87.117088
PE08  14814.306248 -21989.718226 -13174.203495   -175.044264
PE09  -3380.213915  28929.648207  -5253.691278   -223.136024
PE10 -15096.195571  17033.165042  18916.836162   -577.894915
PE11  -3641.929192  17101.719465  23880.149237   3192.292742
PE12 -23117.563176  14417.418603  11584.443655   -771.827355
PE13   4469.555104 -17132.455906 -23713.044922    -19.603548
PE15  23443.772180 -14214.027263 -11152.381327    -68.348320
PE19 -17189.327370   -124.938868  24096.375978  -1241.460159
PE21 -20971.898971 -20876.688809    555.741424   -563.523589
PE24   5406.790401  22790.135705 -18127.197186   -424.612846
PE25  20798.900083  21049.490596   -911.241096     -3.574447
PE26 -17485.345098  -9746.060555 -21792.033760    277.211858
PE27  -5968.860243 -22866.882250  17817.756515   -196.708756
PE30  12733.275069 -11057.060627  24319.325222   -651.779506
PE31 -12353.235564  11372.557397 -24368.796994     -9.805315
PE33 -28283.598965   2613.191682  -8297.805080      2.089309
PE34  28414.062511  -3076.305283   7736.132926    -77.248935
PE36  16824.096462   9992.313652  22216.801070   -142.261647
PG01   -596.657216 -14930.879561 -22271.944057    163.196785
PG02   6000.261045 -16486.712043 -19376.429503   -530.642104
PG03  -8947.053850 -21258.568226 -13409.556368    -22.664290
PG04   -433.013989 -24380.058414  10377.535615    209.358993
PG05  -3556.686461  15913.753777  20767.949848   -149.896278
PG06 -25890.702401   5958.808357  -1511.078100    509.256015
PG07 -18407.542067  -8198.359910  18014.267034     16.814375
PG08   4822.441925 -25863.110367  -1254.609649   -151.480005
PG09  -8884.257728 -17477.964124  17804.011845     -6.720122
PG10  21313.028098   7722.881517 -13918.761122    -60.880784
PG11 -21378.140520  12070.225554  10088.518634   -454.564433
PG12   5794.024737  21651.049598 -14587.715019   -445.608916
PG13 -13455.774999  21874.961592   6112.719704    593.882014
PG14 -21651.244641 -10760.344273 -11167.834728    239.615837
PG15   -919.881605  26353.343440  -2382.083554     95.866675
PG16  10320.212564 -10945.811498  21553.291212   -424.291570
PG17 -14710.290907  -2345.261752 -21560.051043    723.369449
PG18  19560.401651   6657.240266  16803.698718   -475.399674
PG19 -16740.263879   6545.860140 -19628.146275    397.161143
PG20 -14568.659760   7963.011740  20741.126306    402.285122
PG21   8922.368306 -16646.155564 -17766.043369    144.602372
PG22 -19603.089608  -5184.505267 -16554.489523     86.278228
PG23  20751.080954  16506.770369  -2775.041505     96.808925
PG24  -3606.653637  17313.623809 -20095.985366   -368.188326
PG25  16763.506346  20342.609855  -4613.889982    476.822339
PG26  17805.394530  -3763.106439  19327.826385    217.517674
PG27  12721.344112 -20276.014134  10785.822797    -68.140373
PG28  25724.403116  -5463.904102  -3758.738460    -43.383497
PG29   6735.618308  18278.413106  17963.918536   -610.227224
PG30 -24761.124122   -827.654937  10048.414831   -469.595059
PG31  24372.990089  -9873.481343   4877.332664   -225.612236
PG32  15724.373032  -2254.215272 -21070.210810   -584.176565
PJ02 -21414.779689  20288.252878 -25431.820217     -0.136108
PJ03 -29762.917427  29459.609899  10394.760048     -7.813584
PJ04 -26486.245848  27161.174575  24281.750626     72.208283
PR01  11666.415159   9279.413044 -20703.089811     69.549578
PR02   8883.692578  -9868.051748 -21726.387096    -22.343440
PR03   1295.326912 -23368.691763 -10023.836729     88.787831
PR04  -6548.426827 -23666.414432   6888.812319    210.548162
PR05 -10961.880807 -11232.337933  20102.253678    122.022460
PR07   -930.508602  23768.459725   9324.887292     68.838272
PR08   6779.317583  23598.255756  -6940.078446    -73.233426
PR09 -19011.098661   2049.941220 -16908.882007    152.517101
PR11  13436.411339  13627.208192 -16847.598554   -212.256738
PR12  23944.201223   8769.794583    971.495743     33.290638
PR13  20293.004309   -319.987672  15439.594946    -41.157472
PR14   3091.528159 -10731.877205  22943.700791     25.533104
PR15 -14506.232316 -13794.554754  15829.564682     84.850022
PR16 -23955.462126  -8792.148845   -613.082830     20.499387
PR17  13135.655829 -17729.359291 -12824.606526     33.739603
PR18  -1162.926220 -11891.602128 -22508.416845    111.320209
PR19 -13858.232871  -1724.227053 -21336.222870   -254.179536
PR20 -21565.399008  12585.774333  -5285.650737   -103.294819
PR21 -12705.595326  17507.756179  13496.782865    -52.415650
PR22   1961.740832  11729.611804  22597.831348     92.915455
PR24  21079.772795 -13598.181395   4713.555843    -31.651924
PR25 -13711.313224  17270.219518  12810.319788     -6.120122
PR26   6712.422261  23742.369681  -6425.846736 999999.999999
EOF
